$$SOE
2459580.500000000, A.D. 2022-Jan-01 00:00:00.0000, -3.581444601471474E+08, 3.167441940716695E+08, 1.198510041468975E+07,
2459587.500000000, A.D. 2022-Jan-08 00:00:00.0000, -3.639454545138872E+08, 3.090106775532509E+08, 1.382145215074012E+07,
2459594.500000000, A.D. 2022-Jan-15 00:00:00.0000, -3.695843620111545E+08, 3.011395004827738E+08, 1.565164672536853E+07,
2459601.500000000, A.D. 2022-Jan-22 00:00:00.0000, -3.750580012535557E+08, 2.931336263818328E+08, 1.747484019022003E+07,
2459608.500000000, A.D. 2022-Jan-29 00:00:00.0000, -3.803632296283849E+08, 2.849960986543155E+08, 1.929018458021493E+07,
2459615.500000000, A.D. 2022-Feb-05 00:00:00.0000, -3.854969472618356E+08, 2.767300402753931E+08, 2.109682827325794E+07,
2459622.500000000, A.D. 2022-Feb-12 00:00:00.0000, -3.904560988620010E+08, 2.683386523862412E+08, 2.289391607663202E+07,
2459629.500000000, A.D. 2022-Feb-19 00:00:00.0000, -3.952376747633005E+08, 2.598252141569387E+08, 2.468058935534532E+07,
2459636.500000000, A.D. 2022-Feb-26 00:00:00.0000, -3.998387124864683E+08, 2.511930831905412E+08, 2.645598626364288E+07,
2459643.500000000, A.D. 2022-Mar-05 00:00:00.0000, -4.042562986571357E+08, 2.424456958488991E+08, 2.821924201473080E+07,
2459650.500000000, A.D. 2022-Mar-12 00:00:00.0000, -4.084875710627959E+08, 2.335865674321795E+08, 2.996948916314368E+07,
2459657.500000000, A.D. 2022-Mar-19 00:00:00.0000, -4.125297207781978E+08, 2.246192922379383E+08, 3.170585789572696E+07,
2459664.500000000, A.D. 2022-Mar-26 00:00:00.0000, -4.163799943372900E+08, 2.155475434915346E+08, 3.342747632894471E+07,
2459671.500000000, A.D. 2022-Apr-02 00:00:00.0000, -4.200356958838758E+08, 2.063750730895008E+08, 3.513347080200790E+07,
2459678.500000000, A.D. 2022-Apr-09 00:00:00.0000, -4.234941890283936E+08, 1.971057111577705E+08, 3.682296614155553E+07,
2459685.500000000, A.D. 2022-Apr-16 00:00:00.0000, -4.267528980527684E+08, 1.877433660753870E+08, 3.849508591884986E+07,
2459692.500000000, A.D. 2022-Apr-23 00:00:00.0000, -4.298093097315887E+08, 1.782920260439941E+08, 4.014895290474676E+07,
2459699.500000000, A.D. 2022-Apr-30 00:00:00.0000, -4.326609776402623E+08, 1.687557599544319E+08, 4.178368971086933E+07,
2459706.500000000, A.D. 2022-May-07 00:00:00.0000, -4.353055258865140E+08, 1.591387155744424E+08, 4.339841917521191E+07,
2459713.500000000, A.D. 2022-May-14 00:00:00.0000, -4.377406508722153E+08, 1.494451180913561E+08, 4.499226461322310E+07,
2459720.500000000, A.D. 2022-May-21 00:00:00.0000, -4.399641231148528E+08, 1.396792697627052E+08, 4.656435018282462E+07,
2459727.500000000, A.D. 2022-May-28 00:00:00.0000, -4.419737896074173E+08, 1.298455497117294E+08, 4.811380132928061E+07,
2459734.500000000, A.D. 2022-Jun-04 00:00:00.0000, -4.437675764384421E+08, 1.199484135514728E+08, 4.963974525932565E+07,
2459741.500000000, A.D. 2022-Jun-11 00:00:00.0000, -4.453434915253117E+08, 1.099923928357668E+08, 5.114131143177888E+07,
2459748.500000000, A.D. 2022-Jun-18 00:00:00.0000, -4.466996274196818E+08, 9.998209434618130E+07, 5.261763206245457E+07,
2459755.500000000, A.D. 2022-Jun-25 00:00:00.0000, -4.478341641530025E+08, 8.992219917754528E+07, 5.406784263822225E+07,
2459762.500000000, A.D. 2022-Jul-02 00:00:00.0000, -4.487453719853100E+08, 7.981746155211872E+07, 5.549108242280138E+07,
2459769.500000000, A.D. 2022-Jul-09 00:00:00.0000, -4.494316136637959E+08, 6.967270753520316E+07, 5.688649493317379E+07,
2459776.500000000, A.D. 2022-Jul-16 00:00:00.0000, -4.498913462426305E+08, 5.949283473053737E+07, 5.825322848030734E+07,
2459783.500000000, A.D. 2022-Jul-23 00:00:00.0000, -4.501231246590889E+08, 4.928281302824768E+07, 5.959043698234925E+07,
2459790.500000000, A.D. 2022-Jul-30 00:00:00.0000, -4.501256069798376E+08, 3.904768304708517E+07, 6.089728076892373E+07,
2459797.500000000, A.D. 2022-Aug-06 00:00:00.0000, -4.498975577149242E+08, 2.879255291617979E+07, 6.217292709980758E+07,
2459804.500000000, A.D. 2022-Aug-13 00:00:00.0000, -4.494378500159501E+08, 1.852259614681622E+07, 6.341655069844894E+07,
2459811.500000000, A.D. 2022-Aug-20 00:00:00.0000, -4.487454683222245E+08, 8.243050085275866E+06, 6.462733440293653E+07,
2459818.500000000, A.D. 2022-Aug-27 00:00:00.0000, -4.478195113830063E+08, -2.040785784606118E+06, 6.580446986892000E+07,
2459825.500000000, A.D. 2022-Sep-03 00:00:00.0000, -4.466591954035894E+08, -1.232355180340193E+07, 6.694715829284452E+07,
2459832.500000000, A.D. 2022-Sep-10 00:00:00.0000, -4.452638572197928E+08, -2.259983034216039E+07, 6.805461114913554E+07,
2459839.500000000, A.D. 2022-Sep-17 00:00:00.0000, -4.436329574656543E+08, -3.286414825778569E+07, 6.912605093827266E+07,
2459846.500000000, A.D. 2022-Sep-24 00:00:00.0000, -4.417660836678303E+08, -4.311097965166919E+07, 7.016071193569751E+07,
2459853.500000000, A.D. 2022-Oct-01 00:00:00.0000, -4.396629530200159E+08, -5.333474895622018E+07, 7.115784091713183E+07,
2459860.500000000, A.D. 2022-Oct-08 00:00:00.0000, -4.373234144220302E+08, -6.352983382887641E+07, 7.211669786459333E+07,
2459867.500000000, A.D. 2022-Oct-15 00:00:00.0000, -4.347474507056032E+08, -7.369056665615034E+07, 7.303655683495930E+07,
2459874.500000000, A.D. 2022-Oct-22 00:00:00.0000, -4.319351832184559E+08, -8.381123635465190E+07, 7.391670705169712E+07,
2459881.500000000, A.D. 2022-Oct-29 00:00:00.0000, -4.288868762608299E+08, -9.388609306624526E+07, 7.475645377730224E+07,
2459888.500000000, A.D. 2022-Nov-05 00:00:00.0000, -4.256029392673073E+08, -1.039093530084597E+08, 7.555511899678764E+07,
2459895.500000000, A.D. 2022-Nov-12 00:00:00.0000, -4.220839286897249E+08, -1.138752022146037E+08, 7.631204219468307E+07,
2459902.500000000, A.D. 2022-Nov-19 00:00:00.0000, -4.183305502923868E+08, -1.237778001194945E+08, 7.702658121236499E+07,
2459909.500000000, A.D. 2022-Nov-26 00:00:00.0000, -4.143436615901560E+08, -1.336112833887590E+08, 7.769811312828286E+07,
2459916.500000000, A.D. 2022-Dec-03 00:00:00.0000, -4.101242742553346E+08, -1.433697700022407E+08, 7.832603514384732E+07,
2459923.500000000, A.D. 2022-Dec-10 00:00:00.0000, -4.056735564382122E+08, -1.530473635710601E+08, 7.890976547086054E+07,
2459930.500000000, A.D. 2022-Dec-17 00:00:00.0000, -4.009928349660515E+08, -1.626381579114070E+08, 7.944874421441925E+07,
2459937.500000000, A.D. 2022-Dec-24 00:00:00.0000, -3.960835973003746E+08, -1.721362419387846E+08, 7.994243423400457E+07,
2459944.500000000, A.D. 2022-Dec-31 00:00:00.0000, -3.909474928841403E+08, -1.815357047725864E+08, 8.039032195681643E+07,
2459951.500000000, A.D. 2023-Jan-07 00:00:00.0000, -3.855863337450885E+08, -1.908306400852442E+08, 8.079191820868187E+07,
2459958.500000000, A.D. 2023-Jan-14 00:00:00.0000, -3.800020963108356E+08, -2.000151491953113E+08, 8.114675928128435E+07,
2459965.500000000, A.D. 2023-Jan-21 00:00:00.0000, -3.741969250698385E+08, -2.090833460736561E+08, 8.145440803347713E+07,
2459972.500000000, A.D. 2023-Jan-28 00:00:00.0000, -3.681731344013805E+08, -2.180293644540533E+08, 8.171445467267942E+07,
2459979.500000000, A.D. 2023-Feb-04 00:00:00.0000, -3.619332087736148E+08, -2.268473640136624E+08, 8.192651748103945E+07,
2459986.500000000, A.D. 2023-Feb-11 00:00:00.0000, -3.554798030935594E+08, -2.355315358089571E+08, 8.209024363258068E+07,
2459993.500000000, A.D. 2023-Feb-18 00:00:00.0000, -3.488157432608720E+08, -2.440761077827115E+08, 8.220531003706677E+07,
2460000.500000000, A.D. 2023-Feb-25 00:00:00.0000, -3.419440266524588E+08, -2.524753504963950E+08, 8.227142417085694E+07,
2460007.500000000, A.D. 2023-Mar-04 00:00:00.0000, -3.348678224266478E+08, -2.607235830607280E+08, 8.228832488481370E+07,
2460014.500000000, A.D. 2023-Mar-11 00:00:00.0000, -3.275904716095223E+08, -2.688151792541227E+08, 8.225578318455149E+07,
2460021.500000000, A.D. 2023-Mar-18 00:00:00.0000, -3.201154869076167E+08, -2.767445738677441E+08, 8.217360297238795E+07,
2460028.500000000, A.D. 2023-Mar-25 00:00:00.0000, -3.124465520352549E+08, -2.845062693129809E+08, 8.204162172615354E+07,
2460035.500000000, A.D. 2023-Apr-01 00:00:00.0000, -3.045875201241460E+08, -2.920948420857522E+08, 8.185971110570429E+07,
2460042.500000000, A.D. 2023-Apr-08 00:00:00.0000, -2.965424118231210E+08, -2.995049478494658E+08, 8.162777764116648E+07,
2460049.500000000, A.D. 2023-Apr-15 00:00:00.0000, -2.883154154176559E+08, -3.067313262290511E+08, 8.134576362412161E+07,
2460056.500000000, A.D. 2023-Apr-22 00:00:00.0000, -2.799108871540165E+08, -3.137688083549757E+08, 8.101364778392836E+07,
2460063.500000000, A.D. 2023-Apr-29 00:00:00.0000, -2.713333490292655E+08, -3.206123248908304E+08, 8.063144568042785E+07,
2460070.500000000, A.D. 2023-May-06 00:00:00.0000, -2.625874858040593E+08, -3.272569127473917E+08, 8.019921011761060E+07,
2460077.500000000, A.D. 2023-May-13 00:00:00.0000, -2.536781422111835E+08, -3.336977213593563E+08, 7.971703159167954E+07,
2460084.500000000, A.D. 2023-May-20 00:00:00.0000, -2.446103201218818E+08, -3.399300189986954E+08, 7.918503870852581E+07,
2460091.500000000, A.D. 2023-May-27 00:00:00.0000, -2.353891754736801E+08, -3.459491991378890E+08, 7.860339854746398E+07,
2460098.500000000, A.D. 2023-Jun-03 00:00:00.0000, -2.260200149011871E+08, -3.517507868215224E+08, 7.797231696578287E+07,
2460105.500000000, A.D. 2023-Jun-10 00:00:00.0000, -2.165082920472178E+08, -3.573304450441456E+08, 7.729203883905375E+07,
2460112.500000000, A.D. 2023-Jun-17 00:00:00.0000, -2.068596034679926E+08, -3.626839811775793E+08, 7.656284822248349E+07,
2460119.500000000, A.D. 2023-Jun-24 00:00:00.0000, -1.970796838162838E+08, -3.678073533738024E+08, 7.578506840663207E+07,
2460126.500000000, A.D. 2023-Jul-01 00:00:00.0000, -1.871744000535617E+08, -3.726966760958496E+08, 7.495906190964109E+07,
2460133.500000000, A.D. 2023-Jul-08 00:00:00.0000, -1.771497463688712E+08, -3.773482239347085E+08, 7.408523062401177E+07,
2460140.500000000, A.D. 2023-Jul-15 00:00:00.0000, -1.670118410845992E+08, -3.817584365237050E+08, 7.316401600139162E+07,
2460147.500000000, A.D. 2023-Jul-22 00:00:00.0000, -1.567669220332810E+08, -3.859239255702356E+08, 7.219589886692670E+07,
$$EOE